[{"OBJECT_NAME":"STARLINK-11418 [DTC]","OBJECT_ID":"2025-035G","EPOCH":"2026-02-05T15:00:09.523008","MEAN_MOTION":15.70904395,"ECCENTRICITY":0.000379,"INCLINATION":43.0002,"RA_OF_ASC_NODE":209.0012,"ARG_OF_PERICENTER":290.3878,"MEAN_ANOMALY":69.6583,"EPHEMERIS_TYPE":0,"CLASSIFICATION_TYPE":"U","NORAD_CAT_ID":63058,"ELEMENT_SET_NO":999,"REV_AT_EPOCH":5605,"BSTAR":0.0021576,"MEAN_MOTION_DOT":0.00286986,"MEAN_MOTION_DDOT":0},{"OBJECT_NAME":"STARLINK-11509 [DTC]","OBJECT_ID":"2025-035H","EPOCH":"2026-02-05T18:00:02.000160","MEAN_MOTION":15.70902785,"ECCENTRICITY":0.00019385,"INCLINATION":43.0003,"RA_OF_ASC_NODE":208.0995,"ARG_OF_PERICENTER":271.5982,"MEAN_ANOMALY":135.8002,"EPHEMERIS_TYPE":0,"CLASSIFICATION_TYPE":"U","NORAD_CAT_ID":63059,"ELEMENT_SET_NO":999,"REV_AT_EPOCH":596,"BSTAR":-0.0015903462,"MEAN_MOTION_DOT":-0.00200224,"MEAN_MOTION_DDOT":0},{"OBJECT_NAME":"STARLINK-11403 [DTC]","OBJECT_ID":"2025-035J","EPOCH":"2026-02-05T11:26:27.683520","MEAN_MOTION":15.71028029,"ECCENTRICITY":0.00023639,"INCLINATION":42.9988,"RA_OF_ASC_NODE":209.5933,"ARG_OF_PERICENTER":244.3468,"MEAN_ANOMALY":115.7155,"EPHEMERIS_TYPE":0,"CLASSIFICATION_TYPE":"U","NORAD_CAT_ID":63060,"ELEMENT_SET_NO":999,"REV_AT_EPOCH":5615,"BSTAR":0.0029094657,"MEAN_MOTION_DOT":0.00394234,"MEAN_MOTION_DDOT":0},{"OBJECT_NAME":"STARLINK-11409 [DTC]","OBJECT_ID":"2025-035K","EPOCH":"2026-02-05T19:13:12.929376","MEAN_MOTION":15.70939377,"ECCENTRICITY":0.0001883,"INCLINATION":42.9997,"RA_OF_ASC_NODE":207.7278,"ARG_OF_PERICENTER":297.678,"MEAN_ANOMALY":62.3896,"EPHEMERIS_TYPE":0,"CLASSIFICATION_TYPE":"U","NORAD_CAT_ID":63061,"ELEMENT_SET_NO":999,"REV_AT_EPOCH":5620,"BSTAR":0.0021133,"MEAN_MOTION_DOT":0.00281269,"MEAN_MOTION_DDOT":0},{"OBJECT_NAME":"STARLINK-11412 [DTC]","OBJECT_ID":"2025-035L","EPOCH":"2026-02-05T18:56:36.719232","MEAN_MOTION":15.70928796,"ECCENTRICITY":0.0003003,"INCLINATION":42.9986,"RA_OF_ASC_NODE":207.6322,"ARG_OF_PERICENTER":286.7412,"MEAN_ANOMALY":73.3125,"EPHEMERIS_TYPE":0,"CLASSIFICATION_TYPE":"U","NORAD_CAT_ID":63062,"ELEMENT_SET_NO":999,"REV_AT_EPOCH":5620,"BSTAR":0.0020098,"MEAN_MOTION_DOT":0.00266901,"MEAN_MOTION_DDOT":0},{"OBJECT_NAME":"STARLINK-11399 [DTC]","OBJECT_ID":"2025-035M","EPOCH":"2026-02-05T19:57:35.404128","MEAN_MOTION":15.70971213,"ECCENTRICITY":0.0002355,"INCLINATION":43.0005,"RA_OF_ASC_NODE":207.0785,"ARG_OF_PERICENTER":299.383,"MEAN_ANOMALY":60.6802,"EPHEMERIS_TYPE":0,"CLASSIFICATION_TYPE":"U","NORAD_CAT_ID":63063,"ELEMENT_SET_NO":999,"REV_AT_EPOCH":5621,"BSTAR":0.0032823,"MEAN_MOTION_DOT":0.00446589,"MEAN_MOTION_DDOT":0},{"OBJECT_NAME":"STARLINK-11408 [DTC]","OBJECT_ID":"2025-035N","EPOCH":"2026-02-05T12:12:08.743392","MEAN_MOTION":15.71139343,"ECCENTRICITY":0.00024225,"INCLINATION":42.9998,"RA_OF_ASC_NODE":208.953,"ARG_OF_PERICENTER":262.9278,"MEAN_ANOMALY":97.1314,"EPHEMERIS_TYPE":0,"CLASSIFICATION_TYPE":"U","NORAD_CAT_ID":63064,"ELEMENT_SET_NO":999,"REV_AT_EPOCH":5616,"BSTAR":0.0034125019,"MEAN_MOTION_DOT":0.0046889,"MEAN_MOTION_DDOT":0},{"OBJECT_NAME":"STARLINK-33635","OBJECT_ID":"2025-035P","EPOCH":"2026-02-05T05:11:01.865184","MEAN_MOTION":15.27616887,"ECCENTRICITY":0.0001294,"INCLINATION":43.003,"RA_OF_ASC_NODE":330.4475,"ARG_OF_PERICENTER":268.2572,"MEAN_ANOMALY":91.8131,"EPHEMERIS_TYPE":0,"CLASSIFICATION_TYPE":"U","NORAD_CAT_ID":63065,"ELEMENT_SET_NO":999,"REV_AT_EPOCH":5476,"BSTAR":0.0012831,"MEAN_MOTION_DOT":0.00035255,"MEAN_MOTION_DDOT":0},{"OBJECT_NAME":"STARLINK-33622","OBJECT_ID":"2025-035Q","EPOCH":"2026-02-05T20:26:41.814240","MEAN_MOTION":15.27611532,"ECCENTRICITY":7.6e-5,"INCLINATION":43.0018,"RA_OF_ASC_NODE":326.6142,"ARG_OF_PERICENTER":326.6275,"MEAN_ANOMALY":33.4529,"EPHEMERIS_TYPE":0,"CLASSIFICATION_TYPE":"U","NORAD_CAT_ID":63066,"ELEMENT_SET_NO":999,"REV_AT_EPOCH":5486,"BSTAR":0.0017573,"MEAN_MOTION_DOT":0.00048459,"MEAN_MOTION_DDOT":0},{"OBJECT_NAME":"STARLINK-33628","OBJECT_ID":"2025-035R","EPOCH":"2026-02-05T19:44:20.080896","MEAN_MOTION":15.27591429,"ECCENTRICITY":0.0001193,"INCLINATION":43.0006,"RA_OF_ASC_NODE":327.2606,"ARG_OF_PERICENTER":262.0711,"MEAN_ANOMALY":98.0005,"EPHEMERIS_TYPE":0,"CLASSIFICATION_TYPE":"U","NORAD_CAT_ID":63067,"ELEMENT_SET_NO":999,"REV_AT_EPOCH":5485,"BSTAR":0.0011663,"MEAN_MOTION_DOT":0.00031982,"MEAN_MOTION_DDOT":0},{"OBJECT_NAME":"STARLINK-33627","OBJECT_ID":"2025-035S","EPOCH":"2026-02-05T05:25:49.620000","MEAN_MOTION":15.27615847,"ECCENTRICITY":0.0001044,"INCLINATION":42.9996,"RA_OF_ASC_NODE":330.5259,"ARG_OF_PERICENTER":300.1073,"MEAN_ANOMALY":59.9675,"EPHEMERIS_TYPE":0,"CLASSIFICATION_TYPE":"U","NORAD_CAT_ID":63068,"ELEMENT_SET_NO":999,"REV_AT_EPOCH":5475,"BSTAR":0.0013838,"MEAN_MOTION_DOT":0.00038054,"MEAN_MOTION_DDOT":0},{"OBJECT_NAME":"STARLINK-33620","OBJECT_ID":"2025-035T","EPOCH":"2026-02-05T05:20:16.354464","MEAN_MOTION":15.27628608,"ECCENTRICITY":0.0002635,"INCLINATION":43.0009,"RA_OF_ASC_NODE":330.4972,"ARG_OF_PERICENTER":246.1596,"MEAN_ANOMALY":113.8979,"EPHEMERIS_TYPE":0,"CLASSIFICATION_TYPE":"U","NORAD_CAT_ID":63069,"ELEMENT_SET_NO":999,"REV_AT_EPOCH":5475,"BSTAR":0.0020986,"MEAN_MOTION_DOT":0.00058031,"MEAN_MOTION_DDOT":0},{"OBJECT_NAME":"STARLINK-33604","OBJECT_ID":"2025-035U","EPOCH":"2026-02-05T20:04:40.919808","MEAN_MOTION":15.27628751,"ECCENTRICITY":0.0001536,"INCLINATION":43.001,"RA_OF_ASC_NODE":327.3676,"ARG_OF_PERICENTER":263.9087,"MEAN_ANOMALY":96.1589,"EPHEMERIS_TYPE":0,"CLASSIFICATION_TYPE":"U","NORAD_CAT_ID":63070,"ELEMENT_SET_NO":999,"REV_AT_EPOCH":5484,"BSTAR":0.0014436,"MEAN_MOTION_DOT":0.00039736,"MEAN_MOTION_DDOT":0},{"OBJECT_NAME":"STARLINK-33624","OBJECT_ID":"2025-035V","EPOCH":"2026-02-05T19:45:02.194848","MEAN_MOTION":15.27602227,"ECCENTRICITY":5.95e-5,"INCLINATION":43.0006,"RA_OF_ASC_NODE":323.7918,"ARG_OF_PERICENTER":258.5364,"MEAN_ANOMALY":101.5421,"EPHEMERIS_TYPE":0,"CLASSIFICATION_TYPE":"U","NORAD_CAT_ID":63071,"ELEMENT_SET_NO":999,"REV_AT_EPOCH":5478,"BSTAR":0.0012755,"MEAN_MOTION_DOT":0.00035026,"MEAN_MOTION_DDOT":0},{"OBJECT_NAME":"STARLINK-33623","OBJECT_ID":"2025-035W","EPOCH":"2026-02-05T19:55:25.995072","MEAN_MOTION":15.27621334,"ECCENTRICITY":4.6e-5,"INCLINATION":42.9986,"RA_OF_ASC_NODE":327.3158,"ARG_OF_PERICENTER":310.6684,"MEAN_ANOMALY":49.4127,"EPHEMERIS_TYPE":0,"CLASSIFICATION_TYPE":"U","NORAD_CAT_ID":63072,"ELEMENT_SET_NO":999,"REV_AT_EPOCH":5485,"BSTAR":0.001413,"MEAN_MOTION_DOT":0.00038875,"MEAN_MOTION_DDOT":0},{"OBJECT_NAME":"STARLINK-33586","OBJECT_ID":"2025-035X","EPOCH":"2026-02-05T19:05:00.445920","MEAN_MOTION":15.27632173,"ECCENTRICITY":9.33e-5,"INCLINATION":42.9973,"RA_OF_ASC_NODE":320.1177,"ARG_OF_PERICENTER":252.3102,"MEAN_ANOMALY":107.7648,"EPHEMERIS_TYPE":0,"CLASSIFICATION_TYPE":"U","NORAD_CAT_ID":63073,"ELEMENT_SET_NO":999,"REV_AT_EPOCH":5493,"BSTAR":0.00098835,"MEAN_MOTION_DOT":0.00027078,"MEAN_MOTION_DDOT":0}]
