STARLINK-11418 [DTC]    
1 63058U 25035G   26036.62511022  .00286986  00000+0  21576-2 0  9994
2 63058  43.0002 209.0012 0003790 290.3878  69.6583 15.70904395 56059
STARLINK-11509 [DTC]    
1 63059U 25035H   26036.75002315 -.00200224  00000+0 -15903-2 0  9999
2 63059  43.0003 208.0995 0001938 271.5982 135.8002 15.70902785  5966
STARLINK-11403 [DTC]    
1 63060U 25035J   26036.47670930  .00394234  00000+0  29095-2 0  9994
2 63060  42.9988 209.5933 0002363 244.3468 115.7155 15.71028029 56150
STARLINK-11409 [DTC]    
1 63061U 25035K   26036.80084409  .00281269  00000+0  21133-2 0  9990
2 63061  42.9997 207.7278 0001883 297.6780  62.3896 15.70939377 56208
STARLINK-11412 [DTC]    
1 63062U 25035L   26036.78931388  .00266901  00000+0  20098-2 0  9990
2 63062  42.9986 207.6322 0003003 286.7412  73.3125 15.70928796 56203
STARLINK-11399 [DTC]    
1 63063U 25035M   26036.83165977  .00446589  00000+0  32823-2 0  9991
2 63063  43.0005 207.0785 0002355 299.3830  60.6802 15.70971213 56212
STARLINK-11408 [DTC]    
1 63064U 25035N   26036.50843453  .00468890  00000+0  34125-2 0  9994
2 63064  42.9998 208.9530 0002422 262.9278  97.1314 15.71139343 56165
STARLINK-33635          
1 63065U 25035P   26036.21599381  .00035255  00000+0  12831-2 0  9996
2 63065  43.0030 330.4475 0001294 268.2572  91.8131 15.27616887 54762
STARLINK-33622          
1 63066U 25035Q   26036.85187285  .00048459  00000+0  17573-2 0  9991
2 63066  43.0018 326.6142 0000760 326.6275  33.4529 15.27611532 54869
STARLINK-33628          
1 63067U 25035R   26036.82245464  .00031982  00000+0  11663-2 0  9990
2 63067  43.0006 327.2606 0001193 262.0711  98.0005 15.27591429 54855
STARLINK-33627          
1 63068U 25035S   26036.22626875  .00038054  00000+0  13838-2 0  9997
2 63068  42.9996 330.5259 0001044 300.1073  59.9675 15.27615847 54752
STARLINK-33620          
1 63069U 25035T   26036.22241151  .00058031  00000+0  20986-2 0  9997
2 63069  43.0009 330.4972 0002635 246.1596 113.8979 15.27628608 54753
STARLINK-33604          
1 63070U 25035U   26036.83658472  .00039736  00000+0  14436-2 0  9998
2 63070  43.0010 327.3676 0001536 263.9087  96.1589 15.27628751 54843
STARLINK-33624          
1 63071U 25035V   26036.82294207  .00035026  00000+0  12755-2 0  9990
2 63071  43.0006 323.7918 0000595 258.5364 101.5421 15.27602227 54789
STARLINK-33623          
1 63072U 25035W   26036.83016198  .00038875  00000+0  14130-2 0  9997
2 63072  42.9986 327.3158 0000460 310.6684  49.4127 15.27621334 54858
STARLINK-33586          
1 63073U 25035X   26036.79514405  .00027078  00000+0  98835-3 0  9995
2 63073  42.9973 320.1177 0000933 252.3102 107.7648 15.27632173 54937
